IRIDIUM 921             
1 24873U 97034E   24225.67050458  .00107105  00000+0  23419-2 0  9991
2 24873  86.3756 260.0551 0004827  70.5880 289.5897 15.43751842483888
IRIDIUM 26              
1 24903U 97043A   24225.96305710  .00002302  00000+0  77836-3 0  9997
2 24903  86.3922 239.9250 0002423  86.2601 273.8873 14.36487987412488
IRIDIUM 22              
1 24907U 97043E   24225.78385490  .00001724  00000+0  59443-3 0  9995
2 24907  86.3923 243.2824 0002257  91.3169 268.8286 14.35368618412524
DUMMY MASS 1            
1 24925U 97048A   24225.67990710  .00001584  00000+0  17665-3 0  9999
2 24925  86.3317 277.8839 0007937 143.7548 216.4216 14.86337025459294
DUMMY MASS 2            
1 24926U 97048B   24225.72573374  .00001617  00000+0  18143-3 0  9998
2 24926  86.3319 279.4165 0008314 154.8227 205.3404 14.86094878459083
IRIDIUM 29              
1 24944U 97051A   24225.83864759  .00002072  00000+0  70940-3 0  9993
2 24944  86.3920 273.1502 0002249  98.5140 261.6312 14.35825089409017
IRIDIUM 33              
1 24946U 97051C   24225.84920559  .00001381  00000+0  48350-3 0  9999
2 24946  86.3834 272.3935 0008340  20.4819 339.6710 14.34452791408538
IRIDIUM 28              
1 24948U 97051E   24225.73529792  .00001684  00000+0  56455-3 0  9994
2 24948  86.3923 270.8829 0002419  82.0672 278.0800 14.36777944409546
